NORAD_CAT_ID,OBJECT_NAME,OBJECT_TYPE,EPOCH,MEAN_MOTION,ECCENTRICITY,INCLINATION,RA_OF_ASC_NODE,ARG_OF_PERICENTER,MEAN_ANOMALY,BSTAR,MEAN_MOTION_DOT,MEAN_MOTION_DDOT,TLE_LINE0,TLE_LINE1,TLE_LINE2,SEMIMAJOR_AXIS,PERIOD,APOGEE,PERIGEE,DECAYED
53165.0,STARLINK-4090,PAYLOAD,2024-02-18 09:14:53,15.08839932,0.000134,53.2179,292.3658,81.2362,278.8782,8.8906e-05,1.127e-05,0.0,0 STARLINK-4090,1 53165U 22083AK  24049.38534333  .00001127  00000-0  88906-4 0  9992,2 53165  53.2179 292.3658 0001340  81.2362 278.8782 15.08839932 88099,6917.881,95.438,540.673,538.819,0.0
53165.0,STARLINK-4090,PAYLOAD,2024-02-18 20:22:35,15.08827787,7.2e-05,53.2179,290.2842,83.7126,276.3948,0.00028413,4.236e-05,0.0,0 STARLINK-4090,1 53165U 22083AK  24049.84902670  .00004236  00000-0  28413-3 0  9996,2 53165  53.2179 290.2842 0000720  83.7126 276.3948 15.08827787 88796,6917.918,95.438,540.281,539.285,0.0
53165.0,STARLINK-4090,PAYLOAD,2024-02-18 21:57:58,15.08846448,0.0001457,53.2179,289.9875,79.4011,280.7146,5.5567e-05,5.97e-06,0.0,0 STARLINK-4090,1 53165U 22083AK  24049.91526060  .00000597  00000-0  55567-4 0  9996,2 53165  53.2179 289.9875 0001457  79.4011 280.7146 15.08846448 88176,6917.861,95.437,540.734,538.718,0.0
53165.0,STARLINK-4090,PAYLOAD,2024-02-18 23:33:21,15.088467,0.0001323,53.2177,289.6901,91.7221,268.3923,6.7702e-05,7.9e-06,0.0,0 STARLINK-4090,1 53165U 22083AK  24049.98149941  .00000790  00000-0  67702-4 0  9991,2 53165  53.2177 289.6901 0001323  91.7221 268.3923 15.08846700 88810,6917.86,95.437,540.64,538.81,0.0
53165.0,STARLINK-4090,PAYLOAD,2024-02-19 09:05:40,15.08849491,0.0001286,53.2179,287.9099,80.774,279.3398,2.1092e-05,4.8e-07,0.0,0 STARLINK-4090,1 53165U 22083AK  24050.37893782  .00000048  00000-0  21092-4 0  9993,2 53165  53.2179 287.9099 0001286  80.7740 279.3398 15.08849491 88248,6917.851,95.437,540.606,538.827,0.0
53165.0,STARLINK-4090,PAYLOAD,2024-02-19 20:13:23,15.08835531,0.0001456,53.2174,285.8285,85.4256,274.6903,4.8185e-05,4.79e-06,0.0,0 STARLINK-4090,1 53165U 22083AK  24050.84262794  .00000479  00000-0  48185-4 0  9998,2 53165  53.2174 285.8285 0001456  85.4256 274.6903 15.08835531 88947,6917.894,95.438,540.766,538.752,0.0
53165.0,STARLINK-4090,PAYLOAD,2024-02-19 21:48:45,15.08844199,0.000122,53.2162,285.5304,91.9665,268.1467,-6.775e-05,-1.366e-05,0.0,0 STARLINK-4090,1 53165U 22083AK  24050.90886415 -.00001366  00000-0 -67750-4 0  9994,2 53165  53.2162 285.5304 0001220  91.9665 268.1467 15.08844199 88323,6917.868,95.437,540.577,538.889,0.0
53165.0,STARLINK-4090,PAYLOAD,2024-02-20 00:59:31,15.08844223,0.0001285,53.2169,284.934,94.3693,265.7446,2.2491e-05,7e-07,0.0,0 STARLINK-4090,1 53165U 22083AK  24051.04134146  .00000070  00000-0  22491-4 0  9999,2 53165  53.2169 284.9340 0001285  94.3693 265.7446 15.08844223 88971,6917.867,95.437,540.621,538.844,0.0
53165.0,STARLINK-4090,PAYLOAD,2024-02-20 08:56:27,15.08840893,0.0001228,53.2163,283.4462,97.3698,262.7434,-1.4059e-05,-5.12e-06,0.0,0 STARLINK-4090,1 53165U 22083AK  24051.37254402 -.00000512  00000-0 -14059-4 0  9997,2 53165  53.2163 283.4462 0001228  97.3698 262.7434 15.08840893 88398,6917.878,95.437,540.592,538.893,0.0
53165.0,STARLINK-4090,PAYLOAD,2024-02-20 21:39:32,15.0884447,0.0001303,53.2164,281.067,89.8437,270.2704,2.7039e-05,1.42e-06,0.0,0 STARLINK-4090,1 53165U 22083AK  24051.90246170  .00000142  00000-0  27039-4 0  9998,2 53165  53.2164 281.0670 0001303  89.8437 270.2704 15.08844470 88473,6917.867,95.437,540.633,538.83,0.0
53165.0,STARLINK-4090,PAYLOAD,2024-02-21 08:47:14,15.08844863,0.0001226,53.2163,278.9857,99.0015,261.1116,7.4836e-05,9.04e-06,0.0,0 STARLINK-4090,1 53165U 22083AK  24052.36613869  .00000904  00000-0  74836-4 0  9995,2 53165  53.2163 278.9857 0001226  99.0015 261.1116 15.08844863 89173,6917.866,95.437,540.579,538.882,0.0
53165.0,STARLINK-4090,PAYLOAD,2024-02-21 15:08:47,15.08828035,0.0001359,53.2164,277.7964,102.9525,257.1619,0.0002534,3.746e-05,0.0,0 STARLINK-4090,1 53165U 22083AK  24052.63110465  .00003746  00000-0  25340-3 0  9991,2 53165  53.2164 277.7964 0001359 102.9525 257.1619 15.08828035 88587,6917.917,95.438,540.722,538.842,0.0
53165.0,STARLINK-4090,PAYLOAD,2024-02-21 19:54:54,15.0889091,0.0001555,53.2162,276.9042,86.7856,273.3314,-0.00062506,-0.00010236,0.0,0 STARLINK-4090,1 53165U 22083AK  24052.82980131 -.00010236  00000-0 -62506-3 0  9996,2 53165  53.2162 276.9042 0001555  86.7856 273.3314 15.08890910 89244,6917.725,95.434,540.665,538.514,0.0
53165.0,STARLINK-4090,PAYLOAD,2024-02-21 21:30:19,15.08844583,0.0001346,53.2164,276.6069,100.1589,259.9555,9.2237e-05,1.181e-05,0.0,0 STARLINK-4090,1 53165U 22083AK  24052.89605805  .00001181  00000-0  92237-4 0  9997,2 53165  53.2164 276.6069 0001346 100.1589 259.9555 15.08844583 88627,6917.866,95.437,540.663,538.8,0.0
53165.0,STARLINK-4090,PAYLOAD,2024-02-22 00:41:05,15.0884695,0.000136,53.2164,276.0118,101.5286,258.5858,0.00010756,1.425e-05,0.0,0 STARLINK-4090,1 53165U 22083AK  24053.02853559  .00001425  00000-0  10756-3 0  9990,2 53165  53.2164 276.0118 0001360 101.5286 258.5858 15.08846950 89274,6917.859,95.437,540.665,538.783,0.0
53165.0,STARLINK-4090,PAYLOAD,2024-02-22 19:45:43,15.08840949,0.0001463,53.2167,272.4422,105.0381,255.0773,3.8446e-05,3.24e-06,0.0,0 STARLINK-4090,1 53165U 22083AK  24053.82342059  .00000324  00000-0  38446-4 0  9990,2 53165  53.2167 272.4422 0001463 105.0381 255.0773 15.08840949 89397,6917.877,95.437,540.755,538.73,0.0
53165.0,STARLINK-4090,PAYLOAD,2024-02-22 21:21:06,15.08839687,0.0001442,53.2174,272.1456,102.8445,257.2708,-7.6049e-07,-3e-06,0.0,0 STARLINK-4090,1 53165U 22083AK  24053.88966248 -.00000300  00000-0 -76049-6 0  9997,2 53165  53.2174 272.1456 0001442 102.8445 257.2708 15.08839687 88772,6917.881,95.438,540.744,538.749,0.0
53165.0,STARLINK-4090,PAYLOAD,2024-02-23 06:53:26,15.08831889,0.0001376,53.2172,270.362,95.3749,264.74,-6.862e-05,-1.38e-05,0.0,0 STARLINK-4090,1 53165U 22083AK  24054.28711100 -.00001380  00000-0 -68620-4 0  9990,2 53165  53.2172 270.3620 0001376  95.3749 264.7400 15.08831889 89467,6917.905,95.438,540.722,538.818,0.0
53165.0,STARLINK-4090,PAYLOAD,2024-02-23 21:11:54,15.08840114,0.0001245,53.216,267.6857,78.3887,281.7245,-4.3756e-06,-3.58e-06,0.0,0 STARLINK-4090,1 53165U 22083AK  24054.88326507 -.00000358  00000-0 -43756-5 0  9997,2 53165  53.2160 267.6857 0001245  78.3887 281.7245 15.08840114 88921,6917.88,95.438,540.606,538.884,0.0
53165.0,STARLINK-4090,PAYLOAD,2024-02-24 00:22:40,15.08840945,0.0001209,53.2161,267.0909,82.2471,277.8658,-1.0769e-06,-3.05e-06,0.0,0 STARLINK-4090,1 53165U 22083AK  24055.01574410 -.00000305  00000-0 -10769-5 0  9991,2 53165  53.2161 267.0909 0001209  82.2471 277.8658 15.08840945 89575,6917.878,95.437,540.579,538.906,0.0
53165.0,STARLINK-4090,PAYLOAD,2024-02-24 06:44:12,15.0884286,0.0001266,53.216,265.9018,76.7886,283.3248,1.5047e-06,-2.64e-06,0.0,0 STARLINK-4090,1 53165U 22083AK  24055.28070352 -.00000264  00000-0  15047-5 0  9993,2 53165  53.2160 265.9018 0001266  76.7886 283.3248 15.08842860 88982,6917.872,95.437,540.612,538.861,0.0
53165.0,STARLINK-4090,PAYLOAD,2024-02-24 21:02:42,15.08780274,0.0001604,53.2161,263.2257,88.658,271.4596,0.0008287,0.00012904,0.0,0 STARLINK-4090,1 53165U 22083AK  24055.87688011  .00012904  00000-0  82870-3 0  9994,2 53165  53.2161 263.2257 0001604  88.6580 271.4596 15.08780274 89703,6918.063,95.441,541.038,538.818,0.0
53165.0,STARLINK-4090,PAYLOAD,2024-02-24 22:38:04,15.0882627,0.0001309,53.2164,262.928,89.9146,270.1996,0.00022562,3.303e-05,0.0,0 STARLINK-4090,1 53165U 22083AK  24055.94310993  .00003303  00000-0  22562-3 0  9998,2 53165  53.2164 262.9280 0001309  89.9146 270.1996 15.08826270 89080,6917.922,95.438,540.693,538.882,0.0
53165.0,STARLINK-4090,PAYLOAD,2024-02-25 06:34:59,15.08841136,0.0001228,53.2171,261.4414,86.5183,273.595,8.6358e-05,1.087e-05,0.0,0 STARLINK-4090,1 53165U 22083AK  24056.27430478  .00001087  00000-0  86358-4 0  9997,2 53165  53.2171 261.4414 0001228  86.5183 273.5950 15.08841136 89765,6917.877,95.437,540.591,538.892,0.0
53165.0,STARLINK-4090,PAYLOAD,2024-02-25 22:28:50,15.08849887,0.0001277,53.2174,258.4681,87.4812,272.6327,0.00013713,1.896e-05,0.0,0 STARLINK-4090,1 53165U 22083AK  24056.93669891  .00001896  00000-0  13713-3 0  9995,2 53165  53.2174 258.4681 0001277  87.4812 272.6327 15.08849887 89234,6917.85,95.437,540.599,538.832,0.0
53165.0,STARLINK-4090,PAYLOAD,2024-02-26 19:08:52,15.08839987,0.0001654,53.2183,254.6017,131.0361,229.0775,2.4751e-05,1.06e-06,0.0,0 STARLINK-4090,1 53165U 22083AK  24057.79782707  .00000106  00000-0  24751-4 0  9990,2 53165  53.2183 254.6017 0001654 131.0361 229.0775 15.08839987 89995,6917.88,95.438,540.89,538.601,0.0
53165.0,STARLINK-4090,PAYLOAD,2024-02-26 22:19:38,15.08838364,0.0001288,53.217,254.0069,76.5028,283.6108,2.2449e-05,6.9e-07,0.0,0 STARLINK-4090,1 53165U 22083AK  24057.93031118  .00000069  00000-0  22449-4 0  9999,2 53165  53.2170 254.0069 0001288  76.5028 283.6108 15.08838364 89385,6917.885,95.438,540.641,538.859,0.0
53165.0,STARLINK-4090,PAYLOAD,2024-02-27 12:38:06,15.08840945,0.000114,53.2166,251.3307,83.5663,276.5459,3.9519e-05,3.41e-06,0.0,0 STARLINK-4090,1 53165U 22083AK  24058.52646872  .00000341  00000-0  39519-4 0  9993,2 53165  53.2166 251.3307 0001140  83.5663 276.5459 15.08840945 89473,6917.878,95.437,540.531,538.954,0.0
53165.0,STARLINK-4090,PAYLOAD,2024-02-27 18:59:39,15.0884573,0.0001115,53.2157,250.1422,81.4676,278.6443,7.8146e-05,9.56e-06,0.0,0 STARLINK-4090,1 53165U 22083AK  24058.79142428  .00000956  00000-0  78146-4 0  9991,2 53165  53.2157 250.1422 0001115  81.4676 278.6443 15.08845730 89519,6917.863,95.437,540.499,538.957,0.0
53165.0,STARLINK-4090,PAYLOAD,2024-02-28 06:07:20,15.08860413,0.0001144,53.2157,248.0609,80.632,279.4802,-0.00017189,-3.024e-05,0.0,0 STARLINK-4090,1 53165U 22083AK  24059.25509796 -.00003024  00000-0 -17189-3 0  9998,2 53165  53.2157 248.0609 0001144  80.6320 279.4802 15.08860413 90213,6917.818,95.436,540.474,538.892,0.0
